{"type": "FeatureCollection", "features": [ {"type": "Feature", "properties": {"norad_id": 66939, "name": "STARLINK-36154", "group": "last-30-days", "lat": 48.155901209387544, "lon": 62.753416414619814, "alt_km": 339.7040166422694, "timestamp": "2025-12-21T14:40:46.635939+00:00", "meta": {"OBJECT_NAME": "STARLINK-36154", "OBJECT_ID": "2025-286Q", "EPOCH": "2025-12-21T06:00:00.999648", "MEAN_MOTION": 15.74201964, "ECCENTRICITY": 0.00013082, "INCLINATION": 53.1575, "RA_OF_ASC_NODE": 7.6917, "ARG_OF_PERICENTER": 81.4277, "MEAN_ANOMALY": 96.6001, "EPHEMERIS_TYPE": 0, "CLASSIFICATION_TYPE": "U", "NORAD_CAT_ID": 66939, "ELEMENT_SET_NO": 999, "REV_AT_EPOCH": 336, "BSTAR": -0.00040302784, "MEAN_MOTION_DOT": -0.00059274, "MEAN_MOTION_DDOT": 0}, "tle": {"line1": "1 66939U 25286Q   25355.25001157 -.00059274  00000+0 -40303-3 0  9998", "line2": "2 66939  53.1575   7.6917 0001308  81.4277  96.6001 15.74201964  3365"}}, "geometry": {"type": "Point", "coordinates": [62.753416414619814, 48.155901209387544]}}, {"type": "Feature", "properties": {"norad_id": 66940, "name": "STARLINK-36121", "group": "last-30-days", "lat": 48.966534802490045, "lon": 65.38160855480199, "alt_km": 339.7942164346932, "timestamp": "2025-12-21T14:40:46.635949+00:00", "meta": {"OBJECT_NAME": "STARLINK-36121", "OBJECT_ID": "2025-286R", "EPOCH": "2025-12-21T06:00:00.999648", "MEAN_MOTION": 15.74195176, "ECCENTRICITY": 9.57e-05, "INCLINATION": 53.1572, "RA_OF_ASC_NODE": 7.687, "ARG_OF_PERICENTER": 72.7346, "MEAN_ANOMALY": 107.2123, "EPHEMERIS_TYPE": 0, "CLASSIFICATION_TYPE": "U", "NORAD_CAT_ID": 66940, "ELEMENT_SET_NO": 999, "REV_AT_EPOCH": 336, "BSTAR": -0.00032344222, "MEAN_MOTION_DOT": -0.00047742, "MEAN_MOTION_DDOT": 0}, "tle": {"line1": "1 66940U 25286R   25355.25001157 -.00047742  00000+0 -32344-3 0  9993", "line2": "2 66940  53.1572   7.6870 0000957  72.7346 107.2123 15.74195176  3362"}}, "geometry": {"type": "Point", "coordinates": [65.38160855480199, 48.966534802490045]}}, {"type": "Feature", "properties": {"norad_id": 66941, "name": "STARLINK-36088", "group": "last-30-days", "lat": 47.2825081319534, "lon": 60.19722541548613, "alt_km": 339.9170524870524, "timestamp": "2025-12-21T14:40:46.635959+00:00", "meta": {"OBJECT_NAME": "STARLINK-36088", "OBJECT_ID": "2025-286S", "EPOCH": "2025-12-21T06:00:00.999648", "MEAN_MOTION": 15.74172172, "ECCENTRICITY": 0.0001121, "INCLINATION": 53.1575, "RA_OF_ASC_NODE": 7.6954, "ARG_OF_PERICENTER": 74.2545, "MEAN_ANOMALY": 101.8586, "EPHEMERIS_TYPE": 0, "CLASSIFICATION_TYPE": "U", "NORAD_CAT_ID": 66941, "ELEMENT_SET_NO": 999, "REV_AT_EPOCH": 335, "BSTAR": -5.5822707e-05, "MEAN_MOTION_DOT": -8.79e-05, "MEAN_MOTION_DDOT": 0}, "tle": {"line1": "1 66941U 25286S   25355.25001157 -.00008790  00000+0 -55823-4 0  9992", "line2": "2 66941  53.1575   7.6954 0001121  74.2545 101.8586 15.74172172  3354"}}, "geometry": {"type": "Point", "coordinates": [60.19722541548613, 47.2825081319534]}}, {"type": "Feature", "properties": {"norad_id": 66942, "name": "STARLINK-36100", "group": "last-30-days", "lat": 49.69392952562063, "lon": 68.01092731213109, "alt_km": 339.5510031030026, "timestamp": "2025-12-21T14:40:46.635971+00:00", "meta": {"OBJECT_NAME": "STARLINK-36100", "OBJECT_ID": "2025-286T", "EPOCH": "2025-12-21T06:00:00.999648", "MEAN_MOTION": 15.74124266, "ECCENTRICITY": 0.00012109, "INCLINATION": 53.1572, "RA_OF_ASC_NODE": 7.683, "ARG_OF_PERICENTER": 88.515, "MEAN_ANOMALY": 93.342, "EPHEMERIS_TYPE": 0, "CLASSIFICATION_TYPE": "U", "NORAD_CAT_ID": 66942, "ELEMENT_SET_NO": 999, "REV_AT_EPOCH": 329, "BSTAR": 0.00035334618, "MEAN_MOTION_DOT": 0.0005129, "MEAN_MOTION_DDOT": 0}, "tle": {"line1": "1 66942U 25286T   25355.25001157  .00051290  00000+0  35335-3 0  9999", "line2": "2 66942  53.1572   7.6830 0001210  88.5150  93.3420 15.74124266  3290"}}, "geometry": {"type": "Point", "coordinates": [68.01092731213109, 49.69392952562063]}}, {"type": "Feature", "properties": {"norad_id": 66943, "name": "STARLINK-36109", "group": "last-30-days", "lat": 50.39733831529745, "lon": 70.87894281441253, "alt_km": 339.52160481028113, "timestamp": "2025-12-21T14:40:46.635981+00:00", "meta": {"OBJECT_NAME": "STARLINK-36109", "OBJECT_ID": "2025-286U", "EPOCH": "2025-12-21T06:00:00.999648", "MEAN_MOTION": 15.74205854, "ECCENTRICITY": 0.00010999, "INCLINATION": 53.1573, "RA_OF_ASC_NODE": 7.6788, "ARG_OF_PERICENTER": 89.1536, "MEAN_ANOMALY": 94.62, "EPHEMERIS_TYPE": 0, "CLASSIFICATION_TYPE": "U", "NORAD_CAT_ID": 66943, "ELEMENT_SET_NO": 999, "REV_AT_EPOCH": 329, "BSTAR": -0.00041306879, "MEAN_MOTION_DOT": -0.00060734, "MEAN_MOTION_DDOT": 0}, "tle": {"line1": "1 66943U 25286U   25355.25001157 -.00060734  00000+0 -41307-3 0  9991", "line2": "2 66943  53.1573   7.6788 0001099  89.1536  94.6200 15.74205854  3297"}}, "geometry": {"type": "Point", "coordinates": [70.87894281441253, 50.39733831529745]}}, {"type": "Feature", "properties": {"norad_id": 66944, "name": "STARLINK-36112", "group": "last-30-days", "lat": 51.008896270710586, "lon": 73.73450417104429, "alt_km": 339.7104293915181, "timestamp": "2025-12-21T14:40:46.635991+00:00", "meta": {"OBJECT_NAME": "STARLINK-36112", "OBJECT_ID": "2025-286V", "EPOCH": "2025-12-21T06:00:00.999648", "MEAN_MOTION": 15.74192677, "ECCENTRICITY": 7.207e-05, "INCLINATION": 53.1572, "RA_OF_ASC_NODE": 7.6751, "ARG_OF_PERICENTER": 96.4142, "MEAN_ANOMALY": 89.2788, "EPHEMERIS_TYPE": 0, "CLASSIFICATION_TYPE": "U", "NORAD_CAT_ID": 66944, "ELEMENT_SET_NO": 999, "REV_AT_EPOCH": 336, "BSTAR": -0.00033334037, "MEAN_MOTION_DOT": -0.00049169, "MEAN_MOTION_DDOT": 0}, "tle": {"line1": "1 66944U 25286V   25355.25001157 -.00049169  00000+0 -33334-3 0  9992", "line2": "2 66944  53.1572   7.6751 0000720  96.4142  89.2788 15.74192677  3368"}}, "geometry": {"type": "Point", "coordinates": [73.73450417104429, 51.008896270710586]}}, {"type": "Feature", "properties": {"norad_id": 66945, "name": "STARLINK-36110", "group": "last-30-days", "lat": 51.55122758733939, "lon": 76.67552069690134, "alt_km": 339.4032976297676, "timestamp": "2025-12-21T14:40:46.636005+00:00", "meta": {"OBJECT_NAME": "STARLINK-36110", "OBJECT_ID": "2025-286W", "EPOCH": "2025-12-21T06:00:00.999648", "MEAN_MOTION": 15.74190651, "ECCENTRICITY": 0.00010849, "INCLINATION": 53.157, "RA_OF_ASC_NODE": 7.6706, "ARG_OF_PERICENTER": 100.3382, "MEAN_ANOMALY": 87.2725, "EPHEMERIS_TYPE": 0, "CLASSIFICATION_TYPE": "U", "NORAD_CAT_ID": 66945, "ELEMENT_SET_NO": 999, "REV_AT_EPOCH": 336, "BSTAR": -0.00027239197, "MEAN_MOTION_DOT": -0.00040334, "MEAN_MOTION_DDOT": 0}, "tle": {"line1": "1 66945U 25286W   25355.25001157 -.00040334  00000+0 -27239-3 0  9995", "line2": "2 66945  53.1570   7.6706 0001084 100.3382  87.2725 15.74190651  3361"}}, "geometry": {"type": "Point", "coordinates": [76.67552069690134, 51.55122758733939]}}, {"type": "Feature", "properties": {"norad_id": 66946, "name": "STARLINK-36115", "group": "last-30-days", "lat": 52.018336604922006, "lon": 79.68293131477256, "alt_km": 339.2725348274689, "timestamp": "2025-12-21T14:40:46.636015+00:00", "meta": {"OBJECT_NAME": "STARLINK-36115", "OBJECT_ID": "2025-286X", "EPOCH": "2025-12-21T06:00:00.999648", "MEAN_MOTION": 15.74185207, "ECCENTRICITY": 0.00011309, "INCLINATION": 53.1571, "RA_OF_ASC_NODE": 7.667, "ARG_OF_PERICENTER": 95.0774, "MEAN_ANOMALY": 94.4512, "EPHEMERIS_TYPE": 0, "CLASSIFICATION_TYPE": "U", "NORAD_CAT_ID": 66946, "ELEMENT_SET_NO": 999, "REV_AT_EPOCH": 336, "BSTAR": -0.00019989004, "MEAN_MOTION_DOT": -0.00029795, "MEAN_MOTION_DDOT": 0}, "tle": {"line1": "1 66946U 25286X   25355.25001157 -.00029795  00000+0 -19989-3 0  9997", "line2": "2 66946  53.1571   7.6670 0001130  95.0774  94.4512 15.74185207  3365"}}, "geometry": {"type": "Point", "coordinates": [79.68293131477256, 52.018336604922006]}}, {"type": "Feature", "properties": {"norad_id": 66947, "name": "STARLINK-36089", "group": "last-30-days", "lat": 52.7154114623343, "lon": 85.86656520281507, "alt_km": 339.3970577518712, "timestamp": "2025-12-21T14:40:46.636025+00:00", "meta": {"OBJECT_NAME": "STARLINK-36089", "OBJECT_ID": "2025-286Y", "EPOCH": "2025-12-21T06:00:00.999648", "MEAN_MOTION": 15.74183903, "ECCENTRICITY": 7.644e-05, "INCLINATION": 53.1571, "RA_OF_ASC_NODE": 7.6586, "ARG_OF_PERICENTER": 88.1817, "MEAN_ANOMALY": 105.1821, "EPHEMERIS_TYPE": 0, "CLASSIFICATION_TYPE": "U", "NORAD_CAT_ID": 66947, "ELEMENT_SET_NO": 999, "REV_AT_EPOCH": 336, "BSTAR": -0.00018701274, "MEAN_MOTION_DOT": -0.00027919, "MEAN_MOTION_DDOT": 0}, "tle": {"line1": "1 66947U 25286Y   25355.25001157 -.00027919  00000+0 -18701-3 0  9995", "line2": "2 66947  53.1571   7.6586 0000764  88.1817 105.1821 15.74183903  3369"}}, "geometry": {"type": "Point", "coordinates": [85.86656520281507, 52.7154114623343]}}, {"type": "Feature", "properties": {"norad_id": 66948, "name": "STARLINK-36116", "group": "last-30-days", "lat": 52.40907969732181, "lon": 82.76331968758531, "alt_km": 339.5001557492833, "timestamp": "2025-12-21T14:40:46.636035+00:00", "meta": {"OBJECT_NAME": "STARLINK-36116", "OBJECT_ID": "2025-286Z", "EPOCH": "2025-12-21T06:00:00.999648", "MEAN_MOTION": 15.7420898, "ECCENTRICITY": 6.902e-05, "INCLINATION": 53.1574, "RA_OF_ASC_NODE": 7.663, "ARG_OF_PERICENTER": 85.6354, "MEAN_ANOMALY": 105.8039, "EPHEMERIS_TYPE": 0, "CLASSIFICATION_TYPE": "U", "NORAD_CAT_ID": 66948, "ELEMENT_SET_NO": 999, "REV_AT_EPOCH": 336, "BSTAR": -0.00046011, "MEAN_MOTION_DOT": -0.00067531, "MEAN_MOTION_DDOT": 0}, "tle": {"line1": "1 66948U 25286Z   25355.25001157 -.00067531  00000+0 -46011-3 0  9995", "line2": "2 66948  53.1574   7.6630 0000690  85.6354 105.8039 15.74208980  3360"}}, "geometry": {"type": "Point", "coordinates": [82.76331968758531, 52.40907969732181]}}]}